{
  "type": "FeatureCollection",
  "features": [
    {
      "type": "Feature",
      "properties": {
        "norad_id": 55973,
        "name": "TIANMU-1 03",
        "group": "weather",
        "lat": 29.74271267933482,
        "lon": 157.84152128584125,
        "alt_km": 438.3500208844034,
        "timestamp": "2025-12-25T03:55:55.949098+00:00",
        "meta_object_name": "TIANMU-1 03",
        "meta_object_id": "2023-039A",
        "meta_epoch": "2025-12-24T21:34:11.261280",
        "meta_mean_motion": 15.41272816,
        "meta_eccentricity": 0.0003811,
        "meta_inclination": 97.5114,
        "meta_ra_of_asc_node": 161.8927,
        "meta_arg_of_pericenter": 25.535,
        "meta_mean_anomaly": 334.6084,
        "meta_ephemeris_type": 0,
        "meta_classification_type": "U",
        "meta_norad_cat_id": 55973,
        "meta_element_set_no": 999,
        "meta_rev_at_epoch": 15393,
        "meta_bstar": 0.00038476,
        "meta_mean_motion_dot": 0.00015938,
        "meta_mean_motion_ddot": 0,
        "tle_line1": "1 55973U 23039A   25358.89874145  .00015938  00000+0  38476-3 0  9991",
        "tle_line2": "2 55973  97.5114 161.8927 0003811  25.5350 334.6084 15.41272816153931"
      },
      "geometry": {
        "type": "Point",
        "coordinates": [
          157.84152128584125,
          29.74271267933482
        ]
      }
    },
    {
      "type": "Feature",
      "properties": {
        "norad_id": 55974,
        "name": "TIANMU-1 04",
        "group": "weather",
        "lat": 20.391608982732702,
        "lon": -15.839860054668494,
        "alt_km": 443.79325408208933,
        "timestamp": "2025-12-25T03:55:55.949110+00:00",
        "meta_object_name": "TIANMU-1 04",
        "meta_object_id": "2023-039B",
        "meta_epoch": "2025-12-24T21:00:44.313696",
        "meta_mean_motion": 15.4161587,
        "meta_eccentricity": 0.0004418,
        "meta_inclination": 97.5046,
        "meta_ra_of_asc_node": 161.0549,
        "meta_arg_of_pericenter": 18.7494,
        "meta_mean_anomaly": 341.3914,
        "meta_ephemeris_type": 0,
        "meta_classification_type": "U",
        "meta_norad_cat_id": 55974,
        "meta_element_set_no": 999,
        "meta_rev_at_epoch": 15393,
        "meta_bstar": 0.00039462,
        "meta_mean_motion_dot": 0.00016539,
        "meta_mean_motion_ddot": 0,
        "tle_line1": "1 55974U 23039B   25358.87551289  .00016539  00000+0  39462-3 0  9995",
        "tle_line2": "2 55974  97.5046 161.0549 0004418  18.7494 341.3914 15.41615870153933"
      },
      "geometry": {
        "type": "Point",
        "coordinates": [
          -15.839860054668494,
          20.391608982732702
        ]
      }
    },
    {
      "type": "Feature",
      "properties": {
        "norad_id": 55975,
        "name": "TIANMU-1 05",
        "group": "weather",
        "lat": 5.715060696046237,
        "lon": -17.399449165934254,
        "alt_km": 446.54977335415424,
        "timestamp": "2025-12-25T03:55:55.949121+00:00",
        "meta_object_name": "TIANMU-1 05",
        "meta_object_id": "2023-039C",
        "meta_epoch": "2025-12-24T19:23:18.177792",
        "meta_mean_motion": 15.41227182,
        "meta_eccentricity": 0.0003958,
        "meta_inclination": 97.5093,
        "meta_ra_of_asc_node": 161.4782,
        "meta_arg_of_pericenter": 44.7635,
        "meta_mean_anomaly": 315.393,
        "meta_ephemeris_type": 0,
        "meta_classification_type": "U",
        "meta_norad_cat_id": 55975,
        "meta_element_set_no": 999,
        "meta_rev_at_epoch": 15390,
        "meta_bstar": 0.00040226,
        "meta_mean_motion_dot": 0.00016643,
        "meta_mean_motion_ddot": 0,
        "tle_line1": "1 55975U 23039C   25358.80784928  .00016643  00000+0  40226-3 0  9993",
        "tle_line2": "2 55975  97.5093 161.4782 0003958  44.7635 315.3930 15.41227182153904"
      },
      "geometry": {
        "type": "Point",
        "coordinates": [
          -17.399449165934254,
          5.715060696046237
        ]
      }
    },
    {
      "type": "Feature",
      "properties": {
        "norad_id": 55976,
        "name": "TIANMU-1 06",
        "group": "weather",
        "lat": 30.03079397453616,
        "lon": -13.306619180226155,
        "alt_km": 440.8026151621607,
        "timestamp": "2025-12-25T03:55:55.949132+00:00",
        "meta_object_name": "TIANMU-1 06",
        "meta_object_id": "2023-039D",
        "meta_epoch": "2025-12-24T19:29:49.193952",
        "meta_mean_motion": 15.41664797,
        "meta_eccentricity": 0.000421,
        "meta_inclination": 97.5104,
        "meta_ra_of_asc_node": 161.9579,
        "meta_arg_of_pericenter": 38.85,
        "meta_mean_anomaly": 321.3048,
        "meta_ephemeris_type": 0,
        "meta_classification_type": "U",
        "meta_norad_cat_id": 55976,
        "meta_element_set_no": 999,
        "meta_rev_at_epoch": 15392,
        "meta_bstar": 0.00039575,
        "meta_mean_motion_dot": 0.00016613,
        "meta_mean_motion_ddot": 0,
        "tle_line1": "1 55976U 23039D   25358.81237493  .00016613  00000+0  39575-3 0  9997",
        "tle_line2": "2 55976  97.5104 161.9579 0004210  38.8500 321.3048 15.41664797153920"
      },
      "geometry": {
        "type": "Point",
        "coordinates": [
          -13.306619180226155,
          30.03079397453616
        ]
      }
    },
    {
      "type": "Feature",
      "properties": {
        "norad_id": 56232,
        "name": "FENGYUN 3G",
        "group": "weather",
        "lat": 17.1148356355287,
        "lon": -31.664070402387527,
        "alt_km": 410.6062829981165,
        "timestamp": "2025-12-25T03:55:55.949142+00:00",
        "meta_object_name": "FENGYUN 3G",
        "meta_object_id": "2023-055A",
        "meta_epoch": "2025-12-24T21:04:35.026752",
        "meta_mean_motion": 15.520314,
        "meta_eccentricity": 0.0003937,
        "meta_inclination": 49.9926,
        "meta_ra_of_asc_node": 164.7962,
        "meta_arg_of_pericenter": 287.9104,
        "meta_mean_anomaly": 72.1433,
        "meta_ephemeris_type": 0,
        "meta_classification_type": "U",
        "meta_norad_cat_id": 56232,
        "meta_element_set_no": 999,
        "meta_rev_at_epoch": 15291,
        "meta_bstar": 0.00047596,
        "meta_mean_motion_dot": 0.00028895,
        "meta_mean_motion_ddot": 0,
        "tle_line1": "1 56232U 23055A   25358.87818318  .00028895  00000+0  47596-3 0  9995",
        "tle_line2": "2 56232  49.9926 164.7962 0003937 287.9104  72.1433 15.52031400152916"
      },
      "geometry": {
        "type": "Point",
        "coordinates": [
          -31.664070402387527,
          17.1148356355287
        ]
      }
    },
    {
      "type": "Feature",
      "properties": {
        "norad_id": 57166,
        "name": "METEOR-M2 3",
        "group": "weather",
        "lat": -3.3412340882274822,
        "lon": -128.02319756858327,
        "alt_km": 817.0769352243524,
        "timestamp": "2025-12-25T03:55:55.949157+00:00",
        "meta_object_name": "METEOR-M2 3",
        "meta_object_id": "2023-091A",
        "meta_epoch": "2025-12-24T20:19:43.964832",
        "meta_mean_motion": 14.24027475,
        "meta_eccentricity": 0.000326,
        "meta_inclination": 98.6362,
        "meta_ra_of_asc_node": 52.174,
        "meta_arg_of_pericenter": 331.1283,
        "meta_mean_anomaly": 28.9715,
        "meta_ephemeris_type": 0,
        "meta_classification_type": "U",
        "meta_norad_cat_id": 57166,
        "meta_element_set_no": 999,
        "meta_rev_at_epoch": 12970,
        "meta_bstar": 1.9636e-05,
        "meta_mean_motion_dot": 2e-08,
        "meta_mean_motion_ddot": 0,
        "tle_line1": "1 57166U 23091A   25358.84703663  .00000002  00000+0  19636-4 0  9990",
        "tle_line2": "2 57166  98.6362  52.1740 0003260 331.1283  28.9715 14.24027475129709"
      },
      "geometry": {
        "type": "Point",
        "coordinates": [
          -128.02319756858327,
          -3.3412340882274822
        ]
      }
    },
    {
      "type": "Feature",
      "properties": {
        "norad_id": 57399,
        "name": "TIANMU-1 07",
        "group": "weather",
        "lat": -20.23327923632837,
        "lon": 51.44240050569982,
        "alt_km": 485.15748724816603,
        "timestamp": "2025-12-25T03:55:55.949168+00:00",
        "meta_object_name": "TIANMU-1 07",
        "meta_object_id": "2023-101A",
        "meta_epoch": "2025-12-24T20:09:50.484096",
        "meta_mean_motion": 15.28239538,
        "meta_eccentricity": 0.0005038,
        "meta_inclination": 97.2856,
        "meta_ra_of_asc_node": 48.423,
        "meta_arg_of_pericenter": 50.3784,
        "meta_mean_anomaly": 309.79,
        "meta_ephemeris_type": 0,
        "meta_classification_type": "U",
        "meta_norad_cat_id": 57399,
        "meta_element_set_no": 999,
        "meta_rev_at_epoch": 13500,
        "meta_bstar": 0.00028537,
        "meta_mean_motion_dot": 7.783e-05,
        "meta_mean_motion_ddot": 0,
        "tle_line1": "1 57399U 23101A   25358.84016764  .00007783  00000+0  28537-3 0  9991",
        "tle_line2": "2 57399  97.2856  48.4230 0005038  50.3784 309.7900 15.28239538135009"
      },
      "geometry": {
        "type": "Point",
        "coordinates": [
          51.44240050569982,
          -20.23327923632837
        ]
      }
    }
  ]
}